{"type": "FeatureCollection", "features": [ {"type": "Feature", "properties": {"norad_id": 30369, "name": "FENGYUN 1C DEB", "group": "fengyun-1c-debris", "lat": -44.57587295181261, "lon": -1.4493071276716387, "alt_km": 910.5514951535579, "timestamp": "2025-12-18T15:47:11.499133+00:00", "meta": {"OBJECT_NAME": "FENGYUN 1C DEB", "OBJECT_ID": "1999-025ACG", "EPOCH": "2025-12-18T05:53:04.937856", "MEAN_MOTION": 14.1206157, "ECCENTRICITY": 0.00994735, "INCLINATION": 98.7212, "RA_OF_ASC_NODE": 349.4505, "ARG_OF_PERICENTER": 179.8284, "MEAN_ANOMALY": 198.1006, "EPHEMERIS_TYPE": 0, "CLASSIFICATION_TYPE": "U", "NORAD_CAT_ID": 30369, "ELEMENT_SET_NO": 999, "REV_AT_EPOCH": 97324, "BSTAR": 0.00015189513, "MEAN_MOTION_DOT": 2.49e-06, "MEAN_MOTION_DDOT": 0}, "tle": {"line1": "1 30369U 99025ACG 25352.24519604  .00000249  00000+0  15190-3 0  9997", "line2": "2 30369  98.7212 349.4505 0099473 179.8284 198.1006 14.12061570973240"}}, "geometry": {"type": "Point", "coordinates": [-1.4493071276716387, -44.57587295181261]}}, {"type": "Feature", "properties": {"norad_id": 30370, "name": "FENGYUN 1C DEB", "group": "fengyun-1c-debris", "lat": 30.79562265294722, "lon": 43.281420023150574, "alt_km": 826.9319288040879, "timestamp": "2025-12-18T15:47:11.499143+00:00", "meta": {"OBJECT_NAME": "FENGYUN 1C DEB", "OBJECT_ID": "1999-025ACH", "EPOCH": "2025-12-17T16:32:27.980736", "MEAN_MOTION": 14.19176239, "ECCENTRICITY": 0.00993684, "INCLINATION": 99.0568, "RA_OF_ASC_NODE": 47.7469, "ARG_OF_PERICENTER": 303.0835, "MEAN_ANOMALY": 181.4493, "EPHEMERIS_TYPE": 0, "CLASSIFICATION_TYPE": "U", "NORAD_CAT_ID": 30370, "ELEMENT_SET_NO": 999, "REV_AT_EPOCH": 97164, "BSTAR": 0.00097399127, "MEAN_MOTION_DOT": 2.095e-05, "MEAN_MOTION_DDOT": 0}, "tle": {"line1": "1 30370U 99025ACH 25351.68921274  .00002095  00000+0  97399-3 0  9998", "line2": "2 30370  99.0568  47.7469 0099368 303.0835 181.4493 14.19176239971646"}}, "geometry": {"type": "Point", "coordinates": [43.281420023150574, 30.79562265294722]}}, {"type": "Feature", "properties": {"norad_id": 30371, "name": "FENGYUN 1C DEB", "group": "fengyun-1c-debris", "lat": -74.4761340721208, "lon": 68.48028150001602, "alt_km": 794.0683985420555, "timestamp": "2025-12-18T15:47:11.499153+00:00", "meta": {"OBJECT_NAME": "FENGYUN 1C DEB", "OBJECT_ID": "1999-025ACJ", "EPOCH": "2025-12-18T02:59:28.991040", "MEAN_MOTION": 14.30260195, "ECCENTRICITY": 0.00068509, "INCLINATION": 98.5759, "RA_OF_ASC_NODE": 35.0492, "ARG_OF_PERICENTER": 318.3905, "MEAN_ANOMALY": 101.1761, "EPHEMERIS_TYPE": 0, "CLASSIFICATION_TYPE": "U", "NORAD_CAT_ID": 30371, "ELEMENT_SET_NO": 999, "REV_AT_EPOCH": 97980, "BSTAR": 0.00083500346, "MEAN_MOTION_DOT": 2.122e-05, "MEAN_MOTION_DDOT": 0}, "tle": {"line1": "1 30371U 99025ACJ 25352.12464110  .00002122  00000+0  83500-3 0  9990", "line2": "2 30371  98.5759  35.0492 0006850 318.3905 101.1761 14.30260195979801"}}, "geometry": {"type": "Point", "coordinates": [68.48028150001602, -74.4761340721208]}}, {"type": "Feature", "properties": {"norad_id": 30374, "name": "FENGYUN 1C DEB", "group": "fengyun-1c-debris", "lat": -48.624916735808064, "lon": -132.40750444607121, "alt_km": 721.9350038137827, "timestamp": "2025-12-18T15:47:11.499168+00:00", "meta": {"OBJECT_NAME": "FENGYUN 1C DEB", "OBJECT_ID": "1999-025ACM", "EPOCH": "2025-12-18T03:27:54.885600", "MEAN_MOTION": 14.61354313, "ECCENTRICITY": 0.00394632, "INCLINATION": 99.2729, "RA_OF_ASC_NODE": 216.3286, "ARG_OF_PERICENTER": 151.3228, "MEAN_ANOMALY": 339.8025, "EPHEMERIS_TYPE": 0, "CLASSIFICATION_TYPE": "U", "NORAD_CAT_ID": 30374, "ELEMENT_SET_NO": 999, "REV_AT_EPOCH": 99001, "BSTAR": 0.0010859948, "MEAN_MOTION_DOT": 5.372e-05, "MEAN_MOTION_DDOT": 0}, "tle": {"line1": "1 30374U 99025ACM 25352.14438525  .00005372  00000+0  10860-2 0  9994", "line2": "2 30374  99.2729 216.3286 0039463 151.3228 339.8025 14.61354313990012"}}, "geometry": {"type": "Point", "coordinates": [-132.40750444607121, -48.624916735808064]}}, {"type": "Feature", "properties": {"norad_id": 30377, "name": "FENGYUN 1C DEB", "group": "fengyun-1c-debris", "lat": -44.70352199912866, "lon": -176.9355682192642, "alt_km": 825.2087286228789, "timestamp": "2025-12-18T15:47:11.499179+00:00", "meta": {"OBJECT_NAME": "FENGYUN 1C DEB", "OBJECT_ID": "1999-025ACQ", "EPOCH": "2025-12-17T23:32:50.089056", "MEAN_MOTION": 13.99176603, "ECCENTRICITY": 0.01180287, "INCLINATION": 98.8928, "RA_OF_ASC_NODE": 11.3216, "ARG_OF_PERICENTER": 252.0615, "MEAN_ANOMALY": 167.4426, "EPHEMERIS_TYPE": 0, "CLASSIFICATION_TYPE": "U", "NORAD_CAT_ID": 30377, "ELEMENT_SET_NO": 999, "REV_AT_EPOCH": 96280, "BSTAR": 0.00030597806, "MEAN_MOTION_DOT": 4.27e-06, "MEAN_MOTION_DDOT": 0}, "tle": {"line1": "1 30377U 99025ACQ 25351.98113529  .00000427  00000+0  30598-3 0  9999", "line2": "2 30377  98.8928  11.3216 0118028 252.0615 167.4426 13.99176603962801"}}, "geometry": {"type": "Point", "coordinates": [-176.9355682192642, -44.70352199912866]}}, {"type": "Feature", "properties": {"norad_id": 30379, "name": "FENGYUN 1C DEB", "group": "fengyun-1c-debris", "lat": 7.868731284717586, "lon": -171.5560149549265, "alt_km": 867.9074911269618, "timestamp": "2025-12-18T15:47:11.499189+00:00", "meta": {"OBJECT_NAME": "FENGYUN 1C DEB", "OBJECT_ID": "1999-025ACS", "EPOCH": "2025-12-17T23:54:22.621824", "MEAN_MOTION": 14.08039953, "ECCENTRICITY": 0.00355291, "INCLINATION": 98.7579, "RA_OF_ASC_NODE": 6.5813, "ARG_OF_PERICENTER": 264.0094, "MEAN_ANOMALY": 156.1838, "EPHEMERIS_TYPE": 0, "CLASSIFICATION_TYPE": "U", "NORAD_CAT_ID": 30379, "ELEMENT_SET_NO": 999, "REV_AT_EPOCH": 96891, "BSTAR": 0.00032131104, "MEAN_MOTION_DOT": 5.07e-06, "MEAN_MOTION_DDOT": 0}, "tle": {"line1": "1 30379U 99025ACS 25351.99609516  .00000507  00000+0  32131-3 0  9992", "line2": "2 30379  98.7579   6.5813 0035529 264.0094 156.1838 14.08039953968918"}}, "geometry": {"type": "Point", "coordinates": [-171.5560149549265, 7.868731284717586]}}, {"type": "Feature", "properties": {"norad_id": 30380, "name": "FENGYUN 1C DEB", "group": "fengyun-1c-debris", "lat": 35.98410350660327, "lon": 34.08725917286904, "alt_km": 841.4246098119065, "timestamp": "2025-12-18T15:47:11.499200+00:00", "meta": {"OBJECT_NAME": "FENGYUN 1C DEB", "OBJECT_ID": "1999-025ACT", "EPOCH": "2025-12-18T02:22:11.556768", "MEAN_MOTION": 14.50682668, "ECCENTRICITY": 0.0177753, "INCLINATION": 98.9139, "RA_OF_ASC_NODE": 40.039, "ARG_OF_PERICENTER": 201.235, "MEAN_ANOMALY": 158.1401, "EPHEMERIS_TYPE": 0, "CLASSIFICATION_TYPE": "U", "NORAD_CAT_ID": 30380, "ELEMENT_SET_NO": 999, "REV_AT_EPOCH": 99643, "BSTAR": 0.00022973678, "MEAN_MOTION_DOT": 1.046e-05, "MEAN_MOTION_DDOT": 0}, "tle": {"line1": "1 30380U 99025ACT 25352.09874487  .00001046  00000+0  22974-3 0  9990", "line2": "2 30380  98.9139  40.0390 0177753 201.2350 158.1401 14.50682668996431"}}, "geometry": {"type": "Point", "coordinates": [34.08725917286904, 35.98410350660327]}}, {"type": "Feature", "properties": {"norad_id": 30381, "name": "FENGYUN 1C DEB", "group": "fengyun-1c-debris", "lat": -76.59070747054152, "lon": 68.1537649266994, "alt_km": 886.3647643047152, "timestamp": "2025-12-18T15:47:11.499211+00:00", "meta": {"OBJECT_NAME": "FENGYUN 1C DEB", "OBJECT_ID": "1999-025ACU", "EPOCH": "2025-12-18T00:52:08.629536", "MEAN_MOTION": 14.12961412, "ECCENTRICITY": 0.00544267, "INCLINATION": 98.8129, "RA_OF_ASC_NODE": 26.9455, "ARG_OF_PERICENTER": 61.3982, "MEAN_ANOMALY": 299.2651, "EPHEMERIS_TYPE": 0, "CLASSIFICATION_TYPE": "U", "NORAD_CAT_ID": 30381, "ELEMENT_SET_NO": 999, "REV_AT_EPOCH": 92241, "BSTAR": 0.00086858504, "MEAN_MOTION_DOT": 1.598e-05, "MEAN_MOTION_DDOT": 0}, "tle": {"line1": "1 30381U 99025ACU 25352.03621099  .00001598  00000+0  86859-3 0  9998", "line2": "2 30381  98.8129  26.9455 0054426  61.3982 299.2651 14.12961412922418"}}, "geometry": {"type": "Point", "coordinates": [68.1537649266994, -76.59070747054152]}}, {"type": "Feature", "properties": {"norad_id": 30382, "name": "FENGYUN 1C DEB", "group": "fengyun-1c-debris", "lat": 11.81060718446035, "lon": -147.35720177934851, "alt_km": 918.5329020995396, "timestamp": "2025-12-18T15:47:11.499221+00:00", "meta": {"OBJECT_NAME": "FENGYUN 1C DEB", "OBJECT_ID": "1999-025ACV", "EPOCH": "2025-12-18T01:45:54.804672", "MEAN_MOTION": 14.25311847, "ECCENTRICITY": 0.01544774, "INCLINATION": 98.4989, "RA_OF_ASC_NODE": 30.2848, "ARG_OF_PERICENTER": 341.3686, "MEAN_ANOMALY": 70.8304, "EPHEMERIS_TYPE": 0, "CLASSIFICATION_TYPE": "U", "NORAD_CAT_ID": 30382, "ELEMENT_SET_NO": 999, "REV_AT_EPOCH": 97611, "BSTAR": 0.0006952961, "MEAN_MOTION_DOT": 1.81e-05, "MEAN_MOTION_DDOT": 0}, "tle": {"line1": "1 30382U 99025ACV 25352.07355098  .00001810  00000+0  69530-3 0  9990", "line2": "2 30382  98.4989  30.2848 0154477 341.3686  70.8304 14.25311847976111"}}, "geometry": {"type": "Point", "coordinates": [-147.35720177934851, 11.81060718446035]}}, {"type": "Feature", "properties": {"norad_id": 30385, "name": "FENGYUN 1C DEB", "group": "fengyun-1c-debris", "lat": 50.309567732618426, "lon": 2.5932433251546536, "alt_km": 824.747747658932, "timestamp": "2025-12-18T15:47:11.499231+00:00", "meta": {"OBJECT_NAME": "FENGYUN 1C DEB", "OBJECT_ID": "1999-025ACY", "EPOCH": "2025-12-18T07:30:13.308192", "MEAN_MOTION": 14.38798468, "ECCENTRICITY": 0.01246678, "INCLINATION": 99.0815, "RA_OF_ASC_NODE": 13.3398, "ARG_OF_PERICENTER": 273.0681, "MEAN_ANOMALY": 150.6703, "EPHEMERIS_TYPE": 0, "CLASSIFICATION_TYPE": "U", "NORAD_CAT_ID": 30385, "ELEMENT_SET_NO": 999, "REV_AT_EPOCH": 98849, "BSTAR": 0.00024412177, "MEAN_MOTION_DOT": 7.67e-06, "MEAN_MOTION_DDOT": 0}, "tle": {"line1": "1 30385U 99025ACY 25352.31265403  .00000767  00000+0  24412-3 0  9990", "line2": "2 30385  99.0815  13.3398 0124667 273.0681 150.6703 14.38798468988491"}}, "geometry": {"type": "Point", "coordinates": [2.5932433251546536, 50.309567732618426]}}]}